BEIDOU 3 (C01)          
1 36287U 10001A   20336.47731248 -.00000261  00000-0  00000-0 0  9998
2 36287   1.6033  36.8934 0003921 128.3624 217.7954  1.00269601 39872
BEIDOU 5 (C06)          
1 36828U 10036A   20336.47303791  .00000009  00000-0  00000-0 0  9994
2 36828  54.1635 181.4289 0100205 233.7214 305.2052  1.00264098 37924
BEIDOU 6 (C04)          
1 37210U 10057A   20336.64490027 -.00000092  00000-0  00000-0 0  9994
2 37210   0.8075  44.9610 0007039 184.1699 233.9961  1.00271285 36992
BEIDOU 7 (C07)          
1 37256U 10068A   20335.54831184 -.00000223  00000-0  00000+0 0  9992
2 37256  51.2070 296.3663 0080940 215.6752 233.3504  1.00258707 36496
BEIDOU 8 (C08)          
1 37384U 11013A   20336.44242963 -.00000205  00000-0  00000-0 0  9997
2 37384  59.5050  59.9066 0052962 204.3304  82.8290  1.00258845 35376
BEIDOU 9 (C09)          
1 37763U 11038A   20336.37961949  .00000019  00000-0  00000+0 0  9990
2 37763  54.4459 183.8407 0072479 223.2843 254.5621  1.00259731 34351
BEIDOU 10 (C10)         
1 37948U 11073A   20336.35674513 -.00000150  00000-0  00000-0 0  9998
2 37948  51.3020 295.9586 0070451 217.2852 139.6887  1.00258380 33108
BEIDOU 11 (C05)         
1 38091U 12008A   20336.36785373  .00000077  00000-0  00000-0 0  9992
2 38091   1.8311  70.5267 0003515 221.8988 329.3976  1.00271782 32187
BEIDOU 12 (C11)         
1 38250U 12018A   20335.60139589 -.00000074  00000-0  00000-0 0  9996
2 38250  56.7516  12.1816 0024746 244.0865 288.4143  1.86234224 58589
BEIDOU 13 (C12)         
1 38251U 12018B   20336.27344267 -.00000072  00000-0  00000+0 0  9999
2 38251  56.6748  11.5212 0015706 245.9399  61.7578  1.86232523 58592
BEIDOU 15 (C14)         
1 38775U 12050B   20336.33110480  .00000054  00000-0  00000-0 0  9991
2 38775  55.1218 130.6645 0012305 325.3532 218.1861  1.86232246 55970
BEIDOU 16 (C02)         
1 38953U 12059A   20336.60572640 -.00000156  00000-0  00000-0 0  9992
2 38953   1.4978  84.6348 0007962 252.0179  36.3480  1.00274760 29756
BEIDOU 17 (C31)         
1 40549U 15019A   20336.07879093 -.00000152  00000-0  00000+0 0  9993
2 40549  52.8097 319.2814 0039804 194.8766  36.8997  1.00251242 20784
BEIDOU 18 (C57)         
1 40748U 15037A   20336.48035453 -.00000073  00000-0  00000-0 0  9996
2 40748  55.9412  10.7213 0002546 310.5393  45.8522  1.86233328 36423
BEIDOU 19 (C58)         
1 40749U 15037B   20336.50096512 -.00000073  00000-0  00000+0 0  9992
2 40749  55.9474  10.7061 0005812 284.9597 222.2172  1.86232079 36426
BEIDOU 20 (C18)         
1 40938U 15053A   20336.37027229 -.00000146  00000-0  00000-0 0  9996
2 40938  52.3703 282.3247 0047403 192.6289 185.3056  1.00281133 19073
BEIDOU IGSO-6 (C13)     
1 41434U 16021A   20335.69702345 -.00000163  00000-0  00000-0 0  9996
2 41434  57.2764  58.7493 0042922 206.7346 150.2374  1.00266961 17171
BEIDOU-2 G7 (C03)       
1 41586U 16037A   20336.59980014 -.00000334  00000-0  00000-0 0  9992
2 41586   1.8374  68.4125 0007791 355.0598 333.9273  1.00268414 16490
BEIDOU-3 M1 (C19)       
1 43001U 17069A   20336.37308190  .00000054  00000-0  00000+0 0  9994
2 43001  55.2768 130.5883 0007027 288.7296  79.4977  1.86231752 20919
BEIDOU-3 M2 (C20)       
1 43002U 17069B   20336.29734443  .00000054  00000-0  00000+0 0  9990
2 43002  55.2803 130.6274 0006121 320.6218  40.5068  1.86231434 20905
BEIDOU-3 M3 (C27)       
1 43107U 18003A   20336.24067987 -.00000076  00000-0  00000-0 0  9998
2 43107  55.3810  11.8964 0003064  37.0245  91.9832  1.86232483 19663
BEIDOU-3 M4 (C28)       
1 43108U 18003B   20336.47321440 -.00000075  00000-0  00000-0 0  9990
2 43108  55.3735  11.8832 0004666 240.3309  89.7576  1.86232606 19660
BEIDOU-3 M5 (C21)       
1 43207U 18018A   20336.42829919  .00000054  00000-0  00000-0 0  9991
2 43207  55.2377 130.7208 0004564 355.4842   4.4921  1.86231695 19054
BEIDOU-3 M6 (C22)       
1 43208U 18018B   20335.95812384  .00000053  00000-0  00000-0 0  9996
2 43208  55.2370 130.7415 0005443 304.6945  55.2361  1.86231741 19048
BEIDOU-3 M7 (C29)       
1 43245U 18029A   20336.43217954 -.00000075  00000-0  00000-0 0  9990
2 43245  55.3194   9.6945 0001453 247.2190 280.2728  1.86232597 18201
BEIDOU-3 M8 (C30)       
1 43246U 18029B   20336.18746127 -.00000075  00000-0  10000-3 0  9996
2 43246  55.3167   9.7322 0003927 323.9058  85.5433  1.86232915 18196
BEIDOU IGSO-7 (C16)     
1 43539U 18057A   20335.88115936 -.00000035  00000-0  00000-0 0  9998
2 43539  55.0463 180.7473 0030865 212.8873 108.9959  1.00274445  8851
BEIDOU-3 M9 (C23)       
1 43581U 18062A   20336.44795779  .00000016  00000-0  00000-0 0  9991
2 43581  54.4869 251.3971 0004888 286.6383 147.1074  1.86231812 15946
BEIDOU-3 M10 (C24)      
1 43582U 18062B   20336.46938822  .00000016  00000-0  00000+0 0  9991
2 43582  54.4877 251.3859 0006114 343.9294 195.3133  1.86232265 15947
BEIDOU-3 M11 (C25)      
1 43602U 18067A   20336.17770650  .00000016  00000-0  00000-0 0  9991
2 43602  54.5616 249.9643 0007317 351.5523  34.7373  1.86231423 15433
BEIDOU-3 M12 (C26)      
1 43603U 18067B   20336.49935942  .00000018  00000-0  00000+0 0  9995
2 43603  54.5575 249.9201 0004724 340.2155 172.2331  1.86231408 15450
BEIDOU-3 M13 (C32)      
1 43622U 18072A   20336.31131534  .00000053  00000-0  00000-0 0  9998
2 43622  55.1993 130.2993 0003807 284.2542 132.5509  1.86231669 14960
BEIDOU-3 M14 (C33)      
1 43623U 18072B   20336.09824384  .00000053  00000-0  00000-0 0  9996
2 43623  55.2017 130.2994 0002811 335.8712  28.3127  1.86231697 14965
BEIDOU-3 M15 (C34)      
1 43647U 18078A   20336.24458079 -.00000075  00000-0  10000-3 0  9998
2 43647  55.2129   9.9073 0006005 336.8913  20.5358  1.86232780 14467
BEIDOU-3 M16 (C35)      
1 43648U 18078B   20336.38427135 -.00000075  00000-0  10000-3 0  9993
2 43648  55.2075   9.9087 0003771 339.4754  20.4076  1.86232323 14483
BEIDOU-3 G1 (C59)       
1 43683U 18085A   20336.59867028 -.00000255  00000-0  00000-0 0  9998
2 43683   1.4159 246.2402 0004597   1.8269 178.4714  1.00272801  7771
BEIDOU-3 M17 (C36)      
1 43706U 18093A   20336.34732556  .00000015  00000-0  00000+0 0  9995
2 43706  54.5680 251.2461 0010415 274.4866 316.7514  1.86231817 13838
BEIDOU-3 M18 (C37)      
1 43707U 18093B   20336.21433851  .00000015  00000-0  00000+0 0  9998
2 43707  54.5675 251.2392 0009484 296.5172 296.2316  1.86232087 13837
BEIDOU-3 IGSO-1 (C38)   
1 44204U 19023A   20336.40777334 -.00000219  00000-0  00000+0 0  9990
2 44204  55.7361  59.0834 0018216 196.5539  73.0604  1.00299257  6065
BEIDOU-2 G8             
1 44231U 19027A   20336.55015618 -.00000226  00000-0  00000-0 0  9999
2 44231   0.6148 305.3320 0008690 274.2103 193.8163  1.00277640  5792
BEIDOU-3 IGSO-2 (C39)   
1 44337U 19035A   20336.50813285 -.00000025  00000-0  00000-0 0  9993
2 44337  55.0675 176.7836 0016676 183.9715 359.0051  1.00290227  5404
BEIDOU-3 M23 (C45)      
1 44542U 19061A   20335.73298097  .00000011  00000-0  10000-3 0  9990
2 44542  54.7925 251.2975 0009443 324.2994 259.3836  1.86231543  8082
BEIDOU-3 M24 (C46)      
1 44543U 19061B   20336.48042862  .00000017  00000-0  10000-3 0  9997
2 44543  54.7907 251.2421 0006617 318.9779 316.4297  1.86232003  8101
BEIDOU-3 IGSO-3         
1 44709U 19073A   20336.35118796 -.00000178  00000-0  00000-0 0  9995
2 44709  58.1495 302.1923 0021395 198.2086 164.5248  1.00282433  4166
BEIDOU-3 M21            
1 44793U 19078A   20336.31372662 -.00000076  00000-0  10000-3 0  9994
2 44793  55.0620   9.9933 0005651 342.5544  15.9222  1.86232408  6959
BEIDOU-3 M22            
1 44794U 19078B   20335.37132672 -.00000079  00000-0  10000-3 0  9998
2 44794  55.0342  10.0289 0003933 332.2109  25.0376  1.86233262  6931
BEIDOU-3 M19            
1 44864U 19090A   20336.16369876  .00000053  00000-0  00000-0 0  9993
2 44864  55.1362 130.5462 0013437 260.2697 102.8782  1.86231800  6543
BEIDOU-3 M20            
1 44865U 19090B   20336.10033154  .00000053  00000-0  00000-0 0  9995
2 44865  55.1373 130.5782 0012091 278.6830 131.9154  1.86231817  6520
BEIDOU-3 G2             
1 45344U 20017A   20336.46716019 -.00000121  00000-0  00000+0 0  9992
2 45344   2.7071 331.5984 0001448 277.2787  70.1500  1.00271805  2974
BEIDOU-3 G3             
1 45807U 20040A   20336.54308847 -.00000332  00000-0  00000-0 0  9992
2 45807   2.7410 298.5176 0008722   3.1973  75.1950  1.00268213  1797
